{"type": "FeatureCollection", "features": [ {"type": "Feature", "properties": {"norad_id": 41785, "name": "ALSAT 1B", "group": "resource", "lat": 34.44198863949692, "lon": -168.39111540737144, "alt_km": 648.9178181961606, "timestamp": "2025-12-20T18:51:31.375448+00:00", "meta": {"OBJECT_NAME": "ALSAT 1B", "OBJECT_ID": "2016-059C", "EPOCH": "2025-12-20T13:18:31.773888", "MEAN_MOTION": 14.72084999, "ECCENTRICITY": 0.00108163, "INCLINATION": 97.7805, "RA_OF_ASC_NODE": 6.0073, "ARG_OF_PERICENTER": 81.3576, "MEAN_ANOMALY": 278.8857, "EPHEMERIS_TYPE": 0, "CLASSIFICATION_TYPE": "U", "NORAD_CAT_ID": 41785, "ELEMENT_SET_NO": 999, "REV_AT_EPOCH": 49429, "BSTAR": 0.00014100436, "MEAN_MOTION_DOT": 8.4e-06, "MEAN_MOTION_DDOT": 0}, "tle": {"line1": "1 41785U 16059C   25354.55453442  .00000840  00000+0  14100-3 0  9997", "line2": "2 41785  97.7805   6.0073 0010816  81.3576 278.8857 14.72084999494291"}}, "geometry": {"type": "Point", "coordinates": [-168.39111540737144, 34.44198863949692]}}, {"type": "Feature", "properties": {"norad_id": 41787, "name": "PATHFINDER 1", "group": "resource", "lat": 81.36180440305858, "lon": -67.48588469270238, "alt_km": 643.862958205561, "timestamp": "2025-12-20T18:51:31.375458+00:00", "meta": {"OBJECT_NAME": "PATHFINDER 1", "OBJECT_ID": "2016-059E", "EPOCH": "2025-12-19T22:49:46.698816", "MEAN_MOTION": 14.67332832, "ECCENTRICITY": 0.0029853, "INCLINATION": 97.8135, "RA_OF_ASC_NODE": 356.3902, "ARG_OF_PERICENTER": 59.2562, "MEAN_ANOMALY": 301.1577, "EPHEMERIS_TYPE": 0, "CLASSIFICATION_TYPE": "U", "NORAD_CAT_ID": 41787, "ELEMENT_SET_NO": 999, "REV_AT_EPOCH": 49342, "BSTAR": 0.0001042, "MEAN_MOTION_DOT": 5.46e-06, "MEAN_MOTION_DDOT": 0}, "tle": {"line1": "1 41787U 16059E   25353.95123494  .00000546  00000+0  10420-3 0  9997", "line2": "2 41787  97.8135 356.3902 0029853  59.2562 301.1577 14.67332832493421"}}, "geometry": {"type": "Point", "coordinates": [-67.48588469270238, 81.36180440305858]}}, {"type": "Feature", "properties": {"norad_id": 41790, "name": "SCATSAT 1", "group": "resource", "lat": 53.78666699769292, "lon": 40.27666969331483, "alt_km": 600.9005459796854, "timestamp": "2025-12-20T18:51:31.375468+00:00", "meta": {"OBJECT_NAME": "SCATSAT 1", "OBJECT_ID": "2016-059H", "EPOCH": "2025-12-20T03:59:58.946208", "MEAN_MOTION": 14.78958781, "ECCENTRICITY": 0.00564467, "INCLINATION": 98.1453, "RA_OF_ASC_NODE": 50.9294, "ARG_OF_PERICENTER": 104.5786, "MEAN_ANOMALY": 256.1694, "EPHEMERIS_TYPE": 0, "CLASSIFICATION_TYPE": "U", "NORAD_CAT_ID": 41790, "ELEMENT_SET_NO": 999, "REV_AT_EPOCH": 7512, "BSTAR": 0.00013990591, "MEAN_MOTION_DOT": 1.004e-05, "MEAN_MOTION_DDOT": 0}, "tle": {"line1": "1 41790U 16059H   25354.16665447  .00001004  00000+0  13991-3 0  9990", "line2": "2 41790  98.1453  50.9294 0056446 104.5786 256.1694 14.78958781 75124"}}, "geometry": {"type": "Point", "coordinates": [40.27666969331483, 53.78666699769292]}}, {"type": "Feature", "properties": {"norad_id": 41875, "name": "GOKTURK 1A", "group": "resource", "lat": 31.65416347898322, "lon": -118.02126856973595, "alt_km": 681.8252127941496, "timestamp": "2025-12-20T18:51:31.375478+00:00", "meta": {"OBJECT_NAME": "GOKTURK 1A", "OBJECT_ID": "2016-073A", "EPOCH": "2025-12-20T15:25:46.133184", "MEAN_MOTION": 14.62787636, "ECCENTRICITY": 0.00012552, "INCLINATION": 98.1436, "RA_OF_ASC_NODE": 246.9024, "ARG_OF_PERICENTER": 82.6173, "MEAN_ANOMALY": 277.5172, "EPHEMERIS_TYPE": 0, "CLASSIFICATION_TYPE": "U", "NORAD_CAT_ID": 41875, "ELEMENT_SET_NO": 999, "REV_AT_EPOCH": 48272, "BSTAR": 5.4155609e-05, "MEAN_MOTION_DOT": 2.29e-06, "MEAN_MOTION_DDOT": 0}, "tle": {"line1": "1 41875U 16073A   25354.64289506  .00000229  00000+0  54156-4 0  9998", "line2": "2 41875  98.1436 246.9024 0001255  82.6173 277.5172 14.62787636482729"}}, "geometry": {"type": "Point", "coordinates": [-118.02126856973595, 31.65416347898322]}}, {"type": "Feature", "properties": {"norad_id": 41877, "name": "RESOURCESAT-2A", "group": "resource", "lat": -29.546880753439574, "lon": 69.61852424095589, "alt_km": 826.186682590499, "timestamp": "2025-12-20T18:51:31.375488+00:00", "meta": {"OBJECT_NAME": "RESOURCESAT-2A", "OBJECT_ID": "2016-074A", "EPOCH": "2025-12-20T13:55:54.050016", "MEAN_MOTION": 14.21603449, "ECCENTRICITY": 0.00013876, "INCLINATION": 98.7754, "RA_OF_ASC_NODE": 64.3912, "ARG_OF_PERICENTER": 217.7733, "MEAN_ANOMALY": 142.3347, "EPHEMERIS_TYPE": 0, "CLASSIFICATION_TYPE": "U", "NORAD_CAT_ID": 41877, "ELEMENT_SET_NO": 999, "REV_AT_EPOCH": 46892, "BSTAR": 0.00013057279, "MEAN_MOTION_DOT": 2.42e-06, "MEAN_MOTION_DDOT": 0}, "tle": {"line1": "1 41877U 16074A   25354.58048669  .00000242  00000+0  13057-3 0  9996", "line2": "2 41877  98.7754  64.3912 0001387 217.7733 142.3347 14.21603449468920"}}, "geometry": {"type": "Point", "coordinates": [69.61852424095589, -29.546880753439574]}}, {"type": "Feature", "properties": {"norad_id": 41948, "name": "CARTOSAT-2D", "group": "resource", "lat": -76.29768876416148, "lon": 84.56294549445994, "alt_km": 518.1625265449111, "timestamp": "2025-12-20T18:51:31.375499+00:00", "meta": {"OBJECT_NAME": "CARTOSAT-2D", "OBJECT_ID": "2017-008A", "EPOCH": "2025-12-20T14:27:43.342272", "MEAN_MOTION": 15.19334127, "ECCENTRICITY": 0.00053145, "INCLINATION": 97.4383, "RA_OF_ASC_NODE": 51.9812, "ARG_OF_PERICENTER": 137.9421, "MEAN_ANOMALY": 222.2222, "EPHEMERIS_TYPE": 0, "CLASSIFICATION_TYPE": "U", "NORAD_CAT_ID": 41948, "ELEMENT_SET_NO": 999, "REV_AT_EPOCH": 49046, "BSTAR": 0.00025831036, "MEAN_MOTION_DOT": 5.391e-05, "MEAN_MOTION_DDOT": 0}, "tle": {"line1": "1 41948U 17008A   25354.60258498  .00005391  00000+0  25831-3 0  9992", "line2": "2 41948  97.4383  51.9812 0005314 137.9421 222.2222 15.19334127490461"}}, "geometry": {"type": "Point", "coordinates": [84.56294549445994, -76.29768876416148]}}, {"type": "Feature", "properties": {"norad_id": 42063, "name": "SENTINEL-2B", "group": "resource", "lat": -24.98172874937089, "lon": -116.91026209539544, "alt_km": 794.9074270012916, "timestamp": "2025-12-20T18:51:31.375509+00:00", "meta": {"OBJECT_NAME": "SENTINEL-2B", "OBJECT_ID": "2017-013A", "EPOCH": "2025-12-20T14:32:46.402368", "MEAN_MOTION": 14.30814642, "ECCENTRICITY": 0.00012026, "INCLINATION": 98.5715, "RA_OF_ASC_NODE": 66.9422, "ARG_OF_PERICENTER": 91.5789, "MEAN_ANOMALY": 268.5532, "EPHEMERIS_TYPE": 0, "CLASSIFICATION_TYPE": "U", "NORAD_CAT_ID": 42063, "ELEMENT_SET_NO": 999, "REV_AT_EPOCH": 45910, "BSTAR": 0.00016994022, "MEAN_MOTION_DOT": 4.02e-06, "MEAN_MOTION_DDOT": 0}, "tle": {"line1": "1 42063U 17013A   25354.60609262  .00000402  00000+0  16994-3 0  9994", "line2": "2 42063  98.5715  66.9422 0001202  91.5789 268.5532 14.30814642459108"}}, "geometry": {"type": "Point", "coordinates": [-116.91026209539544, -24.98172874937089]}}, {"type": "Feature", "properties": {"norad_id": 42767, "name": "CARTOSAT-2E", "group": "resource", "lat": -10.644909629464038, "lon": -129.14224229410175, "alt_km": 510.6764020899045, "timestamp": "2025-12-20T18:51:31.375519+00:00", "meta": {"OBJECT_NAME": "CARTOSAT-2E", "OBJECT_ID": "2017-036C", "EPOCH": "2025-12-20T14:51:39.014784", "MEAN_MOTION": 15.19276366, "ECCENTRICITY": 0.00024927, "INCLINATION": 97.4553, "RA_OF_ASC_NODE": 52.1037, "ARG_OF_PERICENTER": 198.0254, "MEAN_ANOMALY": 162.0893, "EPHEMERIS_TYPE": 0, "CLASSIFICATION_TYPE": "U", "NORAD_CAT_ID": 42767, "ELEMENT_SET_NO": 999, "REV_AT_EPOCH": 47103, "BSTAR": 0.00031055988, "MEAN_MOTION_DOT": 6.484e-05, "MEAN_MOTION_DDOT": 0}, "tle": {"line1": "1 42767U 17036C   25354.61920156  .00006484  00000+0  31056-3 0  9991", "line2": "2 42767  97.4553  52.1037 0002492 198.0254 162.0893 15.19276366471035"}}, "geometry": {"type": "Point", "coordinates": [-129.14224229410175, -10.644909629464038]}}, {"type": "Feature", "properties": {"norad_id": 42920, "name": "FORMOSAT-5", "group": "resource", "lat": 65.8540857844707, "lon": 50.07282488042677, "alt_km": 722.9401071725051, "timestamp": "2025-12-20T18:51:31.375529+00:00", "meta": {"OBJECT_NAME": "FORMOSAT-5", "OBJECT_ID": "2017-049A", "EPOCH": "2025-12-20T13:35:01.911840", "MEAN_MOTION": 14.5076471, "ECCENTRICITY": 0.00098308, "INCLINATION": 98.2444, "RA_OF_ASC_NODE": 68.728, "ARG_OF_PERICENTER": 274.899, "MEAN_ANOMALY": 85.1083, "EPHEMERIS_TYPE": 0, "CLASSIFICATION_TYPE": "U", "NORAD_CAT_ID": 42920, "ELEMENT_SET_NO": 999, "REV_AT_EPOCH": 44077, "BSTAR": 4.5628392e-05, "MEAN_MOTION_DOT": 1.36e-06, "MEAN_MOTION_DDOT": 0}, "tle": {"line1": "1 42920U 17049A   25354.56599435  .00000136  00000+0  45628-4 0  9991", "line2": "2 42920  98.2444  68.7280 0009830 274.8990  85.1083 14.50764710440772"}}, "geometry": {"type": "Point", "coordinates": [50.07282488042677, 65.8540857844707]}}, {"type": "Feature", "properties": {"norad_id": 42969, "name": "SENTINEL-5P", "group": "resource", "lat": -79.34051320407421, "lon": -11.508877304747285, "alt_km": 835.0251996060415, "timestamp": "2025-12-20T18:51:31.375539+00:00", "meta": {"OBJECT_NAME": "SENTINEL-5P", "OBJECT_ID": "2017-064A", "EPOCH": "2025-12-20T14:10:43.304736", "MEAN_MOTION": 14.19519252, "ECCENTRICITY": 0.00010139, "INCLINATION": 98.7796, "RA_OF_ASC_NODE": 293.1056, "ARG_OF_PERICENTER": 90.7086, "MEAN_ANOMALY": 269.4206, "EPHEMERIS_TYPE": 0, "CLASSIFICATION_TYPE": "U", "NORAD_CAT_ID": 42969, "ELEMENT_SET_NO": 999, "REV_AT_EPOCH": 42422, "BSTAR": 4.1116417e-05, "MEAN_MOTION_DOT": 4.2e-07, "MEAN_MOTION_DDOT": 0}, "tle": {"line1": "1 42969U 17064A   25354.59077899  .00000042  00000+0  41116-4 0  9993", "line2": "2 42969  98.7796 293.1056 0001013  90.7086 269.4206 14.19519252424221"}}, "geometry": {"type": "Point", "coordinates": [-11.508877304747285, -79.34051320407421]}}]}